STARLINK-2022           
1 47643U 21012Z   24109.67821217 -.00004203  00000+0 -26352-3 0  9991
2 47643  53.0526 269.1913 0001151  63.6096 296.5011 15.06392491175744
